STARLINK-36766          
1 68069U 26042A   26093.36855840  .00255502  00000+0  16156-2 0  9991
2 68069  53.1595  71.2887 0004943  23.2355 336.8888 15.75307931  5989
STARLINK-36823          
1 68070U 26042B   26093.50002314  .00091972  00000+0  59955-3 0  9993
2 68070  53.1594  70.4781 0000943  97.2163   6.1228 15.75165579  6030
STARLINK-36970          
1 68071U 26042C   26093.19215219  .00418810  00000+0  26018-2 0  9996
2 68071  53.1592  72.3274 0001205 110.2076 249.9074 15.75251329  5953
STARLINK-36972          
1 68072U 26042D   26093.50002314  .00173509  00000+0  11190-2 0  9990
2 68072  53.1599  70.5344 0000987  86.3814 349.3275 15.75115121  6046
STARLINK-37074          
1 68073U 26042E   26093.49999048  .00348759  00000+0  21817-2 0  9996
2 68073  53.1573  70.6874 0001737  73.6957 286.4254 15.75292515  6006
STARLINK-37045          
1 68074U 26042F   26093.20576718  .00348918  00000+0  21910-2 0  9992
2 68074  53.1592  72.4195 0001753  48.0719 312.0451 15.75204514  5954
STARLINK-37026          
1 68075U 26042G   26093.34206392  .00204389  00000+0  13041-2 0  9995
2 68075  53.1556  71.8497 0001562  41.9508 318.1631 15.75263338  5977
STARLINK-37023          
1 68076U 26042H   26093.20997259  .00140052  00000+0  89965-3 0  9995
2 68076  53.1564  72.4446 0001173 123.8809 236.2324 15.75317489  5954
STARLINK-37036          
1 68077U 26042J   26093.33335647  .00046728  00000+0  30895-3 0  9990
2 68077  53.1564  71.8366 0001261  59.0100 279.3046 15.75117025  6012
STARLINK-36973          
1 68078U 26042K   26093.18306917  .00213050  00000+0  13577-2 0  9993
2 68078  53.1582  72.2652 0001552  38.1980 321.9151 15.75265549  5951
STARLINK-37063          
1 68079U 26042L   26093.53472953  .00526309  00000+0  24988-2 0  9999
2 68079  53.1566  70.1821 0001785 137.0645 223.0517 15.80978935  6016
STARLINK-37051          
1 68080U 26042M   26093.25105729  .00249689  00000+0  15798-2 0  9996
2 68080  53.1582  71.9810 0001317  80.7971 279.3198 15.75320146  5961
