CCSDS_OMM_VERS = 2.0
CREATION_DATE  = 
ORIGINATOR     = 

OBJECT_NAME    = STARLINK-36766
OBJECT_ID      = 2026-042A
CENTER_NAME    = EARTH
REF_FRAME      = TEME
TIME_SYSTEM    = UTC
MEAN_ELEMENT_THEORY = SGP/SGP4

EPOCH          = 2026-04-03T08:50:43.445760
MEAN_MOTION    = 15.75307931
ECCENTRICITY   = .0004943
INCLINATION    = 53.1595
RA_OF_ASC_NODE = 71.2887
ARG_OF_PERICENTER = 23.2355
MEAN_ANOMALY   = 336.8888

EPHEMERIS_TYPE = 0
CLASSIFICATION_TYPE = U
NORAD_CAT_ID   = 68069
ELEMENT_SET_NO = 999
REV_AT_EPOCH   = 598
BSTAR          = .16156E-2
MEAN_MOTION_DOT = .255502E-2
MEAN_MOTION_DDOT = 0

CCSDS_OMM_VERS = 2.0
CREATION_DATE  = 
ORIGINATOR     = 

OBJECT_NAME    = STARLINK-36823
OBJECT_ID      = 2026-042B
CENTER_NAME    = EARTH
REF_FRAME      = TEME
TIME_SYSTEM    = UTC
MEAN_ELEMENT_THEORY = SGP/SGP4

EPOCH          = 2026-04-03T12:00:01.999296
MEAN_MOTION    = 15.75165579
ECCENTRICITY   = .0000943
INCLINATION    = 53.1594
RA_OF_ASC_NODE = 70.4781
ARG_OF_PERICENTER = 97.2163
MEAN_ANOMALY   = 6.1228

EPHEMERIS_TYPE = 0
CLASSIFICATION_TYPE = U
NORAD_CAT_ID   = 68070
ELEMENT_SET_NO = 999
REV_AT_EPOCH   = 603
BSTAR          = .59955E-3
MEAN_MOTION_DOT = .91972E-3
MEAN_MOTION_DDOT = 0

CCSDS_OMM_VERS = 2.0
CREATION_DATE  = 
ORIGINATOR     = 

OBJECT_NAME    = STARLINK-36970
OBJECT_ID      = 2026-042C
CENTER_NAME    = EARTH
REF_FRAME      = TEME
TIME_SYSTEM    = UTC
MEAN_ELEMENT_THEORY = SGP/SGP4

EPOCH          = 2026-04-03T04:36:41.949216
MEAN_MOTION    = 15.75251329
ECCENTRICITY   = .00012053
INCLINATION    = 53.1592
RA_OF_ASC_NODE = 72.3274
ARG_OF_PERICENTER = 110.2076
MEAN_ANOMALY   = 249.9074

EPHEMERIS_TYPE = 0
CLASSIFICATION_TYPE = U
NORAD_CAT_ID   = 68071
ELEMENT_SET_NO = 999
REV_AT_EPOCH   = 595
BSTAR          = .26017811E-2
MEAN_MOTION_DOT = .41881E-2
MEAN_MOTION_DDOT = 0

CCSDS_OMM_VERS = 2.0
CREATION_DATE  = 
ORIGINATOR     = 

OBJECT_NAME    = STARLINK-36972
OBJECT_ID      = 2026-042D
CENTER_NAME    = EARTH
REF_FRAME      = TEME
TIME_SYSTEM    = UTC
MEAN_ELEMENT_THEORY = SGP/SGP4

EPOCH          = 2026-04-03T12:00:01.999296
MEAN_MOTION    = 15.75115121
ECCENTRICITY   = .0000987
INCLINATION    = 53.1599
RA_OF_ASC_NODE = 70.5344
ARG_OF_PERICENTER = 86.3814
MEAN_ANOMALY   = 349.3275

EPHEMERIS_TYPE = 0
CLASSIFICATION_TYPE = U
NORAD_CAT_ID   = 68072
ELEMENT_SET_NO = 999
REV_AT_EPOCH   = 604
BSTAR          = .1119E-2
MEAN_MOTION_DOT = .173509E-2
MEAN_MOTION_DDOT = 0

CCSDS_OMM_VERS = 2.0
CREATION_DATE  = 
ORIGINATOR     = 

OBJECT_NAME    = STARLINK-37074
OBJECT_ID      = 2026-042E
CENTER_NAME    = EARTH
REF_FRAME      = TEME
TIME_SYSTEM    = UTC
MEAN_ELEMENT_THEORY = SGP/SGP4

EPOCH          = 2026-04-03T11:59:59.177472
MEAN_MOTION    = 15.75292515
ECCENTRICITY   = .0001737
INCLINATION    = 53.1573
RA_OF_ASC_NODE = 70.6874
ARG_OF_PERICENTER = 73.6957
MEAN_ANOMALY   = 286.4254

EPHEMERIS_TYPE = 0
CLASSIFICATION_TYPE = U
NORAD_CAT_ID   = 68073
ELEMENT_SET_NO = 999
REV_AT_EPOCH   = 600
BSTAR          = .21817E-2
MEAN_MOTION_DOT = .348759E-2
MEAN_MOTION_DDOT = 0

CCSDS_OMM_VERS = 2.0
CREATION_DATE  = 
ORIGINATOR     = 

OBJECT_NAME    = STARLINK-37045
OBJECT_ID      = 2026-042F
CENTER_NAME    = EARTH
REF_FRAME      = TEME
TIME_SYSTEM    = UTC
MEAN_ELEMENT_THEORY = SGP/SGP4

EPOCH          = 2026-04-03T04:56:18.284352
MEAN_MOTION    = 15.75204514
ECCENTRICITY   = .00017532
INCLINATION    = 53.1592
RA_OF_ASC_NODE = 72.4195
ARG_OF_PERICENTER = 48.0719
MEAN_ANOMALY   = 312.0451

EPHEMERIS_TYPE = 0
CLASSIFICATION_TYPE = U
NORAD_CAT_ID   = 68074
ELEMENT_SET_NO = 999
REV_AT_EPOCH   = 595
BSTAR          = .21910103E-2
MEAN_MOTION_DOT = .348918E-2
MEAN_MOTION_DDOT = 0

CCSDS_OMM_VERS = 2.0
CREATION_DATE  = 
ORIGINATOR     = 

OBJECT_NAME    = STARLINK-37026
OBJECT_ID      = 2026-042G
CENTER_NAME    = EARTH
REF_FRAME      = TEME
TIME_SYSTEM    = UTC
MEAN_ELEMENT_THEORY = SGP/SGP4

EPOCH          = 2026-04-03T08:12:34.322688
MEAN_MOTION    = 15.75263338
ECCENTRICITY   = .0001562
INCLINATION    = 53.1556
RA_OF_ASC_NODE = 71.8497
ARG_OF_PERICENTER = 41.9508
MEAN_ANOMALY   = 318.1631

EPHEMERIS_TYPE = 0
CLASSIFICATION_TYPE = U
NORAD_CAT_ID   = 68075
ELEMENT_SET_NO = 999
REV_AT_EPOCH   = 597
BSTAR          = .13041E-2
MEAN_MOTION_DOT = .204389E-2
MEAN_MOTION_DDOT = 0

CCSDS_OMM_VERS = 2.0
CREATION_DATE  = 
ORIGINATOR     = 

OBJECT_NAME    = STARLINK-37023
OBJECT_ID      = 2026-042H
CENTER_NAME    = EARTH
REF_FRAME      = TEME
TIME_SYSTEM    = UTC
MEAN_ELEMENT_THEORY = SGP/SGP4

EPOCH          = 2026-04-03T05:02:21.631776
MEAN_MOTION    = 15.75317489
ECCENTRICITY   = .00011739
INCLINATION    = 53.1564
RA_OF_ASC_NODE = 72.4446
ARG_OF_PERICENTER = 123.8809
MEAN_ANOMALY   = 236.2324

EPHEMERIS_TYPE = 0
CLASSIFICATION_TYPE = U
NORAD_CAT_ID   = 68076
ELEMENT_SET_NO = 999
REV_AT_EPOCH   = 595
BSTAR          = .8996545E-3
MEAN_MOTION_DOT = .140052E-2
MEAN_MOTION_DDOT = 0

CCSDS_OMM_VERS = 2.0
CREATION_DATE  = 
ORIGINATOR     = 

OBJECT_NAME    = STARLINK-37036
OBJECT_ID      = 2026-042J
CENTER_NAME    = EARTH
REF_FRAME      = TEME
TIME_SYSTEM    = UTC
MEAN_ELEMENT_THEORY = SGP/SGP4

EPOCH          = 2026-04-03T08:00:01.999008
MEAN_MOTION    = 15.75117025
ECCENTRICITY   = .0001261
INCLINATION    = 53.1564
RA_OF_ASC_NODE = 71.8366
ARG_OF_PERICENTER = 59.0100
MEAN_ANOMALY   = 279.3046

EPHEMERIS_TYPE = 0
CLASSIFICATION_TYPE = U
NORAD_CAT_ID   = 68077
ELEMENT_SET_NO = 999
REV_AT_EPOCH   = 601
BSTAR          = .30895E-3
MEAN_MOTION_DOT = .46728E-3
MEAN_MOTION_DDOT = 0

CCSDS_OMM_VERS = 2.0
CREATION_DATE  = 
ORIGINATOR     = 

OBJECT_NAME    = STARLINK-36973
OBJECT_ID      = 2026-042K
CENTER_NAME    = EARTH
REF_FRAME      = TEME
TIME_SYSTEM    = UTC
MEAN_ELEMENT_THEORY = SGP/SGP4

EPOCH          = 2026-04-03T04:23:37.176288
MEAN_MOTION    = 15.75265549
ECCENTRICITY   = .0001552
INCLINATION    = 53.1582
RA_OF_ASC_NODE = 72.2652
ARG_OF_PERICENTER = 38.1980
MEAN_ANOMALY   = 321.9151

EPHEMERIS_TYPE = 0
CLASSIFICATION_TYPE = U
NORAD_CAT_ID   = 68078
ELEMENT_SET_NO = 999
REV_AT_EPOCH   = 595
BSTAR          = .13576887E-2
MEAN_MOTION_DOT = .21305E-2
MEAN_MOTION_DDOT = 0

CCSDS_OMM_VERS = 2.0
CREATION_DATE  = 
ORIGINATOR     = 

OBJECT_NAME    = STARLINK-37063
OBJECT_ID      = 2026-042L
CENTER_NAME    = EARTH
REF_FRAME      = TEME
TIME_SYSTEM    = UTC
MEAN_ELEMENT_THEORY = SGP/SGP4

EPOCH          = 2026-04-03T12:50:00.631392
MEAN_MOTION    = 15.80978935
ECCENTRICITY   = .0001785
INCLINATION    = 53.1566
RA_OF_ASC_NODE = 70.1821
ARG_OF_PERICENTER = 137.0645
MEAN_ANOMALY   = 223.0517

EPHEMERIS_TYPE = 0
CLASSIFICATION_TYPE = U
NORAD_CAT_ID   = 68079
ELEMENT_SET_NO = 999
REV_AT_EPOCH   = 601
BSTAR          = .24988E-2
MEAN_MOTION_DOT = .526309E-2
MEAN_MOTION_DDOT = 0

CCSDS_OMM_VERS = 2.0
CREATION_DATE  = 
ORIGINATOR     = 

OBJECT_NAME    = STARLINK-37051
OBJECT_ID      = 2026-042M
CENTER_NAME    = EARTH
REF_FRAME      = TEME
TIME_SYSTEM    = UTC
MEAN_ELEMENT_THEORY = SGP/SGP4

EPOCH          = 2026-04-03T06:01:31.349856
MEAN_MOTION    = 15.75320146
ECCENTRICITY   = .0001317
INCLINATION    = 53.1582
RA_OF_ASC_NODE = 71.9810
ARG_OF_PERICENTER = 80.7971
MEAN_ANOMALY   = 279.3198

EPHEMERIS_TYPE = 0
CLASSIFICATION_TYPE = U
NORAD_CAT_ID   = 68080
ELEMENT_SET_NO = 999
REV_AT_EPOCH   = 596
BSTAR          = .15798E-2
MEAN_MOTION_DOT = .249689E-2
MEAN_MOTION_DDOT = 0

